{
  "type": "FeatureCollection",
  "features": [
    {
      "type": "Feature",
      "properties": {
        "norad_id": 34637,
        "name": "COSMOS 2251 DEB",
        "group": "cosmos-2251-debris",
        "lat": 7.552600672926491,
        "lon": -100.55219885502176,
        "alt_km": 662.1289459848167,
        "timestamp": "2025-12-22T23:36:21.111450+00:00",
        "meta_object_name": "COSMOS 2251 DEB",
        "meta_object_id": "1993-036XJ",
        "meta_epoch": "2025-12-22T06:39:01.562688",
        "meta_mean_motion": 14.60173978,
        "meta_eccentricity": 0.00491154,
        "meta_inclination": 74.0499,
        "meta_ra_of_asc_node": 82.9677,
        "meta_arg_of_pericenter": 150.8636,
        "meta_mean_anomaly": 268.7882,
        "meta_ephemeris_type": 0,
        "meta_classification_type": "U",
        "meta_norad_cat_id": 34637,
        "meta_element_set_no": 999,
        "meta_rev_at_epoch": 88666,
        "meta_bstar": 0.0008534586,
        "meta_mean_motion_dot": 4.154e-05,
        "meta_mean_motion_ddot": 0,
        "tle_line1": "1 34637U 93036XJ  25356.27710142  .00004154  00000+0  85346-3 0  9991",
        "tle_line2": "2 34637  74.0499  82.9677 0049115 150.8636 268.7882 14.60173978886667"
      },
      "geometry": {
        "type": "Point",
        "coordinates": [
          -100.55219885502176,
          7.552600672926491
        ]
      }
    },
    {
      "type": "Feature",
      "properties": {
        "norad_id": 34641,
        "name": "COSMOS 2251 DEB",
        "group": "cosmos-2251-debris",
        "lat": -42.20154425274476,
        "lon": -102.63861869266395,
        "alt_km": 729.8147665941442,
        "timestamp": "2025-12-22T23:36:21.111461+00:00",
        "meta_object_name": "COSMOS 2251 DEB",
        "meta_object_id": "1993-036XN",
        "meta_epoch": "2025-12-21T22:35:07.787904",
        "meta_mean_motion": 14.52063292,
        "meta_eccentricity": 0.00190151,
        "meta_inclination": 73.8389,
        "meta_ra_of_asc_node": 64.103,
        "meta_arg_of_pericenter": 336.8289,
        "meta_mean_anomaly": 200.1727,
        "meta_ephemeris_type": 0,
        "meta_classification_type": "U",
        "meta_norad_cat_id": 34641,
        "meta_element_set_no": 999,
        "meta_rev_at_epoch": 88389,
        "meta_bstar": 0.00076877833,
        "meta_mean_motion_dot": 3.089e-05,
        "meta_mean_motion_ddot": 0,
        "tle_line1": "1 34641U 93036XN  25355.94106236  .00003089  00000+0  76878-3 0  9998",
        "tle_line2": "2 34641  73.8389  64.1030 0019015 336.8289 200.1727 14.52063292883896"
      },
      "geometry": {
        "type": "Point",
        "coordinates": [
          -102.63861869266395,
          -42.20154425274476
        ]
      }
    },
    {
      "type": "Feature",
      "properties": {
        "norad_id": 34642,
        "name": "COSMOS 2251 DEB",
        "group": "cosmos-2251-debris",
        "lat": 24.499400221240464,
        "lon": 134.54644256725996,
        "alt_km": 750.7274374844992,
        "timestamp": "2025-12-22T23:36:21.111471+00:00",
        "meta_object_name": "COSMOS 2251 DEB",
        "meta_object_id": "1993-036XP",
        "meta_epoch": "2025-12-22T08:08:38.414400",
        "meta_mean_motion": 13.98998636,
        "meta_eccentricity": 0.02065608,
        "meta_inclination": 74.0044,
        "meta_ra_of_asc_node": 323.173,
        "meta_arg_of_pericenter": 140.7375,
        "meta_mean_anomaly": 9.5968,
        "meta_ephemeris_type": 0,
        "meta_classification_type": "U",
        "meta_norad_cat_id": 34642,
        "meta_element_set_no": 999,
        "meta_rev_at_epoch": 85427,
        "meta_bstar": 0.00076268319,
        "meta_mean_motion_dot": 1.301e-05,
        "meta_mean_motion_ddot": 0,
        "tle_line1": "1 34642U 93036XP  25356.33933350  .00001301  00000+0  76268-3 0  9996",
        "tle_line2": "2 34642  74.0044 323.1730 0206560 140.7375   9.5968 13.98998636854270"
      },
      "geometry": {
        "type": "Point",
        "coordinates": [
          134.54644256725996,
          24.499400221240464
        ]
      }
    },
    {
      "type": "Feature",
      "properties": {
        "norad_id": 34671,
        "name": "COSMOS 2251 DEB",
        "group": "cosmos-2251-debris",
        "lat": 18.97534553126282,
        "lon": -71.13284229043228,
        "alt_km": 664.0287087864917,
        "timestamp": "2025-12-22T23:36:21.111482+00:00",
        "meta_object_name": "COSMOS 2251 DEB",
        "meta_object_id": "1993-036XR",
        "meta_epoch": "2025-12-22T02:23:20.292288",
        "meta_mean_motion": 14.67083344,
        "meta_eccentricity": 0.00107529,
        "meta_inclination": 74.0273,
        "meta_ra_of_asc_node": 116.2253,
        "meta_arg_of_pericenter": 197.1927,
        "meta_mean_anomaly": 335.865,
        "meta_ephemeris_type": 0,
        "meta_classification_type": "U",
        "meta_norad_cat_id": 34671,
        "meta_element_set_no": 999,
        "meta_rev_at_epoch": 88434,
        "meta_bstar": 0.0016108198,
        "meta_mean_motion_dot": 9.033e-05,
        "meta_mean_motion_ddot": 0,
        "tle_line1": "1 34671U 93036XR  25356.09954042  .00009033  00000+0  16108-2 0  9998",
        "tle_line2": "2 34671  74.0273 116.2253 0010752 197.1927 335.8650 14.67083344884344"
      },
      "geometry": {
        "type": "Point",
        "coordinates": [
          -71.13284229043228,
          18.97534553126282
        ]
      }
    },
    {
      "type": "Feature",
      "properties": {
        "norad_id": 34672,
        "name": "COSMOS 2251 DEB",
        "group": "cosmos-2251-debris",
        "lat": -63.295910527817966,
        "lon": -107.91834068610923,
        "alt_km": 769.8047627581309,
        "timestamp": "2025-12-22T23:36:21.111492+00:00",
        "meta_object_name": "COSMOS 2251 DEB",
        "meta_object_id": "1993-036XS",
        "meta_epoch": "2025-12-18T13:28:46.255872",
        "meta_mean_motion": 14.36417673,
        "meta_eccentricity": 0.00241418,
        "meta_inclination": 74.0338,
        "meta_ra_of_asc_node": 294.8922,
        "meta_arg_of_pericenter": 5.7391,
        "meta_mean_anomaly": 109.133,
        "meta_ephemeris_type": 0,
        "meta_classification_type": "U",
        "meta_norad_cat_id": 34672,
        "meta_element_set_no": 999,
        "meta_rev_at_epoch": 65261,
        "meta_bstar": 0.00020838077,
        "meta_mean_motion_dot": 5.86e-06,
        "meta_mean_motion_ddot": 0,
        "tle_line1": "1 34672U 93036XS  25352.56164648  .00000586  00000+0  20838-3 0  9992",
        "tle_line2": "2 34672  74.0338 294.8922 0024141   5.7391 109.1330 14.36417673652611"
      },
      "geometry": {
        "type": "Point",
        "coordinates": [
          -107.91834068610923,
          -63.295910527817966
        ]
      }
    },
    {
      "type": "Feature",
      "properties": {
        "norad_id": 34678,
        "name": "COSMOS 2251 DEB",
        "group": "cosmos-2251-debris",
        "lat": -57.11024910224167,
        "lon": -166.6597632807573,
        "alt_km": 813.883929104426,
        "timestamp": "2025-12-22T23:36:21.111510+00:00",
        "meta_object_name": "COSMOS 2251 DEB",
        "meta_object_id": "1993-036XY",
        "meta_epoch": "2025-12-20T18:41:52.747872",
        "meta_mean_motion": 14.30066309,
        "meta_eccentricity": 0.00246589,
        "meta_inclination": 74.0376,
        "meta_ra_of_asc_node": 351.0764,
        "meta_arg_of_pericenter": 37.6613,
        "meta_mean_anomaly": 18.542,
        "meta_ephemeris_type": 0,
        "meta_classification_type": "U",
        "meta_norad_cat_id": 34678,
        "meta_element_set_no": 999,
        "meta_rev_at_epoch": 87494,
        "meta_bstar": 2.2824328e-05,
        "meta_mean_motion_dot": 3.3e-07,
        "meta_mean_motion_ddot": 0,
        "tle_line1": "1 34678U 93036XY  25354.77908273  .00000033  00000+0  22824-4 0  9998",
        "tle_line2": "2 34678  74.0376 351.0764 0024658  37.6613  18.5420 14.30066309874948"
      },
      "geometry": {
        "type": "Point",
        "coordinates": [
          -166.6597632807573,
          -57.11024910224167
        ]
      }
    },
    {
      "type": "Feature",
      "properties": {
        "norad_id": 34680,
        "name": "COSMOS 2251 DEB",
        "group": "cosmos-2251-debris",
        "lat": -29.495104031960697,
        "lon": -60.38724313516093,
        "alt_km": 691.8762885539454,
        "timestamp": "2025-12-22T23:36:21.111541+00:00",
        "meta_object_name": "COSMOS 2251 DEB",
        "meta_object_id": "1993-036YA",
        "meta_epoch": "2025-12-22T07:59:41.815968",
        "meta_mean_motion": 14.60717323,
        "meta_eccentricity": 0.00064091,
        "meta_inclination": 74.0448,
        "meta_ra_of_asc_node": 111.5411,
        "meta_arg_of_pericenter": 212.6495,
        "meta_mean_anomaly": 178.9794,
        "meta_ephemeris_type": 0,
        "meta_classification_type": "U",
        "meta_norad_cat_id": 34680,
        "meta_element_set_no": 999,
        "meta_rev_at_epoch": 88468,
        "meta_bstar": 0.0011221069,
        "meta_mean_motion_dot": 5.446e-05,
        "meta_mean_motion_ddot": 0,
        "tle_line1": "1 34680U 93036YA  25356.33312287  .00005446  00000+0  11221-2 0  9999",
        "tle_line2": "2 34680  74.0448 111.5411 0006409 212.6495 178.9794 14.60717323884685"
      },
      "geometry": {
        "type": "Point",
        "coordinates": [
          -60.38724313516093,
          -29.495104031960697
        ]
      }
    }
  ]
}